     2.11           N: GPS NAV DATA                         RINEX VERSION / TYPE
teqc  2019Feb25                         20221121 12:25:47UTCPGM / RUN BY / DATE
OSX ker:10.11.6|Core i5|gcc 4.3 -m64|OSX ker:10.10+|=+      COMMENT
    4.6566D-09  1.4901D-08 -5.9605D-08 -5.9605D-08          ION ALPHA
    7.7824D+04  4.9152D+04 -6.5536D+04 -3.2768D+05          ION BETA
    0.000000000000D+00-5.329070518201D-15   147456     1543 DELTA-UTC: A0,A1,T,W
                                                            END OF HEADER
 9 09  8  1  2  0  0.0 6.955396384001D-05 2.046363078989D-12 0.000000000000D+00
    8.900000000000D+01-7.871875000000D+01 4.153387290966D-09 9.690279607042D-01
   -4.408881068230D-06 2.076255332213D-02 4.215165972710D-06 5.153632289886D+03
    5.256000000000D+05-2.533197402954D-07 1.582305492461D+00-2.272427082062D-07
    9.768768877806D-01 3.114375000000D+02 1.499431178881D+00-8.332132781060D-09
   -1.103617398666D-10 1.000000000000D+00 1.542000000000D+03 0.000000000000D+00
    2.800000000000D+00 0.000000000000D+00-5.587935447693D-09 8.900000000000D+01
    5.184180000000D+05 4.000000000000D+00
19 09  8  1  2  0  0.0 1.693284139037D-05-1.477928890381D-12 0.000000000000D+00
    6.400000000000D+01 3.281250000000D+00 4.946991776350D-09-2.251474928568D+00
    1.881271600723D-07 5.776320700534D-03 7.238239049912D-06 5.153629465103D+03
    5.256000000000D+05-1.788139343262D-07-2.499648073198D+00-5.215406417847D-08
    9.575982227125D-01 2.425937500000D+02-3.065180188144D-01-7.991761460372D-09
    2.614394614315D-10 1.000000000000D+00 1.542000000000D+03 0.000000000000D+00
    2.000000000000D+00 0.000000000000D+00-1.443549990654D-08 6.400000000000D+01
    5.184180000000D+05 4.000000000000D+00
20 09  8  1  1 59 44.0 7.588183507323D-05-9.094947017729D-13 0.000000000000D+00
    2.200000000000D+01 7.500000000000D+01 4.842701717965D-09-1.094159221838D-01
    3.935769200325D-06 3.850132692605D-03 7.964670658112D-06 5.153802976608D+03
    5.255840000000D+05-2.980232238770D-08-5.045525838175D-01 4.097819328308D-08
    9.411964079911D-01 2.143125000000D+02 1.338702955952D+00-8.179269270825D-09
   -3.200133298397D-10 1.000000000000D+00 1.542000000000D+03 0.000000000000D+00
    2.000000000000D+00 0.000000000000D+00-6.519258022308D-09 2.200000000000D+01
    5.184180000000D+05 4.000000000000D+00
17 09  8  1  2  0  0.0 7.418030872941D-05 2.614797267597D-12 0.000000000000D+00
    5.600000000000D+01 1.281250000000D+00 4.885203488334D-09-1.629607631928D+00
    1.136213541031D-07 4.590807016939D-03 7.022172212601D-06 5.153708223343D+03
    5.256000000000D+05 7.636845111847D-08-2.555500301748D+00 3.725290298462D-09
    9.599399522550D-01 2.424687500000D+02-2.635772549272D+00-7.967117576712D-09
    3.628722579432D-10 1.000000000000D+00 1.542000000000D+03 0.000000000000D+00
    2.000000000000D+00 0.000000000000D+00-1.024454832077D-08 5.600000000000D+01
    5.184180000000D+05 4.000000000000D+00
 4 09  8  1  2  0  0.0-1.996527425945D-04-1.671196514508D-11 0.000000000000D+00
    2.800000000000D+01 1.165625000000D+01 5.288434570241D-09 1.826483050865D-01
    6.705522537231D-07 8.643091190606D-03 7.037073373795D-06 5.153772895813D+03
    5.256000000000D+05 3.352761268616D-08-1.521741491510D+00 5.029141902924D-08
    9.397844126273D-01 2.294375000000D+02 4.965810378735D-01-8.342847513086D-09
   -5.114498753688D-10 1.000000000000D+00 1.542000000000D+03 0.000000000000D+00
    2.000000000000D+00 0.000000000000D+00-6.053596735001D-09 2.800000000000D+01
    5.232180000000D+05 4.000000000000D+00
12 09  8  1  2  0  0.0-2.416018396616D-04 6.025402399246D-12 0.000000000000D+00
    6.300000000000D+01-6.928125000000D+01 4.226247468742D-09 1.913122366986D+00
   -3.807246685028D-06 3.193699871190D-03 8.935108780861D-06 5.153610065460D+03
    5.256000000000D+05 7.264316082001D-08 2.668574989363D+00 3.539025783539D-08
    9.678984197114D-01 2.144062500000D+02-6.278346784630D-01-7.693891910052D-09
    3.182275411687D-10 1.000000000000D+00 1.542000000000D+03 0.000000000000D+00
    2.000000000000D+00 0.000000000000D+00-1.164153218269D-08 6.300000000000D+01
    5.236680000000D+05 4.000000000000D+00
32 09  8  1  4  0  0.0 2.226554788649D-04-6.366462912410D-12 0.000000000000D+00
    1.010000000000D+02 8.468750000000D+01 4.159816130182D-09-2.574431877798D+00
    4.405155777931D-06 1.323848357424D-02 8.020550012589D-06 5.153768222809D+03
    5.328000000000D+05 4.097819328308D-08-3.937160482195D-01 1.788139343262D-07
    9.632723567544D-01 2.236875000000D+02-1.137307975957D+00-7.584244485654D-09
   -2.314382117591D-10 1.000000000000D+00 1.542000000000D+03 0.000000000000D+00
    2.000000000000D+00 0.000000000000D+00-3.259629011154D-09 1.010000000000D+02
    5.256180000000D+05 4.000000000000D+00
11 09  8  1  4  0  0.0-1.308461651206D-05-1.705302565824D-12 0.000000000000D+00
    2.300000000000D+01 6.562500000000D-01 6.453125941455D-09 2.803519746353D+00
   -3.725290298462D-08 9.579265606590D-03 6.431713700295D-06 5.153689086914D+03
    5.328000000000D+05-9.313225746155D-08-1.743625307759D+00-1.266598701477D-07
    8.888446468959D-01 2.175625000000D+02 7.083504374790D-01-8.660360738787D-09
   -2.078658013021D-10 1.000000000000D+00 1.542000000000D+03 0.000000000000D+00
    2.000000000000D+00 0.000000000000D+00-1.164153218269D-08 2.300000000000D+01
    5.256180000000D+05 4.000000000000D+00
14 09  8  1  4  0  0.0-7.169181481004D-05 5.570655048359D-12 0.000000000000D+00
    5.400000000000D+01 5.650000000000D+01 3.935521073107D-09-1.084102745528D+00
    2.807006239891D-06 4.692042595707D-03 3.201887011528D-06 5.153628618240D+03
    5.328000000000D+05 1.024454832077D-07 6.074255434492D-01 1.545995473862D-07
    9.882777082705D-01 3.343125000000D+02-2.168859478343D+00-7.981046728346D-09
   -7.178870457341D-11 1.000000000000D+00 1.542000000000D+03 0.000000000000D+00
    2.000000000000D+00 0.000000000000D+00-9.313225746155D-09 5.400000000000D+01
    5.256180000000D+05 4.000000000000D+00
20 09  8  1  4  0  0.0 7.587531581521D-05-9.094947017729D-13 0.000000000000D+00
    2.300000000000D+01 6.890625000000D+01 4.832344143673D-09 9.428631954081D-01
    3.580003976822D-06 3.850852022879D-03 8.303672075272D-06 5.153804683685D+03
    5.328000000000D+05-8.754432201386D-08-5.046117032629D-01 3.539025783539D-08
    9.411941565602D-01 2.096875000000D+02 1.338861492384D+00-8.158911279975D-09
   -2.967980771169D-10 1.000000000000D+00 1.542000000000D+03 0.000000000000D+00
    2.000000000000D+00 0.000000000000D+00-6.519258022308D-09 2.300000000000D+01
    5.256180000000D+05 4.000000000000D+00
 4 09  8  1  4  0  0.0-1.997728832066D-04-1.671196514508D-11 0.000000000000D+00
    2.900000000000D+01 1.312500000000D+01 5.357008855207D-09 1.232754701136D+00
    9.406358003616D-07 8.643311797641D-03 7.322058081627D-06 5.153773427963D+03
    5.328000000000D+05 5.774199962616D-08-1.521801883694D+00 1.471489667892D-07
    9.397808299409D-01 2.282187500000D+02 4.966006936408D-01-8.350347825504D-09
   -4.468043254793D-10 1.000000000000D+00 1.542000000000D+03 0.000000000000D+00
    2.000000000000D+00 0.000000000000D+00-6.053596735001D-09 2.900000000000D+01
    5.256180000000D+05 4.000000000000D+00
12 09  8  1  4  0  0.0-2.415585331619D-04 6.025402399246D-12 0.000000000000D+00
    6.400000000000D+01-7.540625000000D+01 4.041596920163D-09 2.962954345936D+00
   -3.928318619728D-06 3.192272968590D-03 9.128823876381D-06 5.153613595963D+03
    5.328000000000D+05 1.862645149231D-09 2.668519306312D+00 8.940696716309D-08
    9.679009885955D-01 2.023125000000D+02-6.274505351933D-01-7.668890868658D-09
    3.843017219950D-10 1.000000000000D+00 1.542000000000D+03 0.000000000000D+00
    2.000000000000D+00 0.000000000000D+00-1.164153218269D-08 6.400000000000D+01
    5.256180000000D+05 4.000000000000D+00
17 09  8  1  4  0  0.0 7.419940084219D-05 2.614797267597D-12 0.000000000000D+00
    7.200000000000D+01-9.687500000000D-01 4.867702759358D-09-5.793778065541D-01
    1.136213541031D-07 4.590989556164D-03 7.033348083496D-06 5.153708906174D+03
    5.328000000000D+05 4.284083843231D-08-2.555557639359D+00 6.332993507385D-08
    9.599423543665D-01 2.437187500000D+02-2.635840266287D+00-8.013905239892D-09
    3.493002640438D-10 1.000000000000D+00 1.542000000000D+03 0.000000000000D+00
    2.800000000000D+00 0.000000000000D+00-1.024454832077D-08 7.200000000000D+01
    5.256180000000D+05 4.000000000000D+00
23 09  8  1  4  0  0.0 3.897934220731D-04-2.273736754432D-13 0.000000000000D+00
    4.900000000000D+01 5.346875000000D+01 4.241605251313D-09-1.725415139038D+00
    2.739951014519D-06 6.384031497873D-03 3.341585397720D-06 5.153587930679D+03
    5.328000000000D+05-4.097819328308D-08 5.737746298907D-01-4.656612873077D-08
    9.702532394448D-01 3.206250000000D+02 2.927377162792D+00-8.074979212439D-09
    6.607418082628D-11 1.000000000000D+00 1.542000000000D+03 0.000000000000D+00
    2.000000000000D+00 0.000000000000D+00-2.002343535423D-08 4.900000000000D+01
    5.267880000000D+05 4.000000000000D+00
30 09  8  1  3 59 44.0 1.653032377362D-04 2.842170943040D-12 0.000000000000D+00
    5.500000000000D+01-7.015625000000D+01 4.499473135402D-09 4.633549323185D-01
   -3.848224878311D-06 1.171245495789D-02 8.968636393547D-06 5.153567342758D+03
    5.327840000000D+05-1.359730958939D-07 2.619714409118D+00-1.490116119385D-08
    9.529706705050D-01 2.040000000000D+02 1.433607108222D+00-8.114623720935D-09
    2.735828243942D-10 1.000000000000D+00 1.542000000000D+03 0.000000000000D+00
    2.000000000000D+00 0.000000000000D+00-8.381903171539D-09 5.500000000000D+01
    5.272680000000D+05 4.000000000000D+00
